IRIDIUM 26              
1 24903U 97043A   25289.12376183  .00000756  00000+0  24750-3 0  9996
2 24903  86.3945  59.7689 0002232  87.9065 272.2388 14.37252662474110
IRIDIUM 22              
1 24907U 97043E   25289.08422522  .00000688  00000+0  23002-3 0  9997
2 24907  86.3942  63.4306 0002048  88.7609 271.3823 14.36053591474121
DUMMY MASS 1            
1 24925U 97048A   25289.14020373  .00000733  00000+0  78541-4 0  9997
2 24925  86.3304  79.3598 0008961  80.8706 279.3532 14.87098710523109
DUMMY MASS 2            
1 24926U 97048B   25288.71872618  .00000737  00000+0  79408-4 0  9994
2 24926  86.3302  81.1861 0009770  90.7576 269.4769 14.86849304522817
IRIDIUM 29              
1 24944U 97051A   25288.71539961  .00000700  00000+0  23182-3 0  9996
2 24944  86.3900  93.3123 0001905  91.5681 268.5734 14.36576128470578
IRIDIUM 33              
1 24946U 97051C   25288.69093158  .00000508  00000+0  17158-3 0  9990
2 24946  86.3816  92.5934 0009474  54.0691 306.1383 14.34971336470028
IRIDIUM 28              
1 24948U 97051E   25288.75202292  .00000682  00000+0  22144-3 0  9994
2 24948  86.3907  90.7415 0002532  81.5422 278.6063 14.37482358471168
IRIDIUM 36              
1 24967U 97056C   25289.11399257  .00000525  00000+0  16808-3 0  9995
2 24967  86.3931 122.2229 0002136  80.8557 279.2882 14.37704814469595
